{
  "norad_id": 49426,
  "name": "STARLINK-3114",
  "history": [
    {
      "epoch": "2026-03-28T13:27:42.803712",
      "apogee_km": 540.8754764522346,
      "perigee_km": 538.6866471774756,
      "latitude_deg": 6.937240414253151,
      "longitude_deg": -103.55244032014161,
      "semi_major_axis_km": 6917.918061814855,
      "eccentricity": 0.0001582,
      "inclination_deg": 53.2166,
      "raan_deg": 144.405,
      "arg_perigee_deg": 107.8795,
      "mean_anomaly_deg": 252.237,
      "mean_motion_rev_day": 15.08827675
    }
  ]
}