{"fetched_at":"2026-03-29T02:12:04Z","count":15717,"tles":[{"name":"STARLINK-3114","line1":"1 49426U 21104U   26087.56091209  .00001979  00000+0  14244-3 0  9991","line2":"2 49426  53.2166 144.4050 0001582 107.8795 252.2370 15.08827675241479","category":"Starlink"}]}